GLOBALSTAR M045 [-]     
1 25676U 99019A   23257.54359451 -.00000043  00000+0  44531-3 0  9996
2 25676  51.9996 334.0196 0000795  56.1715  48.8618 12.27015273114628
GLOBALSTAR M019 [-]     
1 25677U 99019B   23257.38408954 -.00000199  00000+0 -11381-2 0  9991
2 25677  51.9885  59.6941 0001826  96.1503 270.6138 12.13845344107202
GLOBALSTAR M044 [-]     
1 25678U 99019C   23257.60646594 -.00000111  00000+0 -37942-3 0  9997
2 25678  51.9966 290.1790 0006281 241.1585 290.9760 11.90222166 94924
GLOBALSTAR M042 [-]     
1 25679U 99019D   23257.73245499 -.00000092  00000+0 -12832-5 0  9992
2 25679  52.0018  61.7361 0003852  65.3283 307.1939 12.22046639106909
GLOBALSTAR M025 [-]     
1 25770U 99031A   23257.31404646 -.00000073  00000+0 -17144-3 0  9991
2 25770  51.9792 206.2031 0001003 126.6073  43.9161 11.22544647409620
GLOBALSTAR M049 [-]     
1 25771U 99031B   23257.22949637 -.00000013  00000+0  18275-2 0  9994
2 25771  51.9845 208.8996 0003034  10.1327 349.9531 11.12096741 46008
GLOBALSTAR M047 [-]     
1 25772U 99031C   23257.76757302 -.00000066  00000+0  10058-3 0  9990
2 25772  51.9812 265.9306 0016284 241.8398 118.0763 11.31915280 73241
GLOBALSTAR M052 [-]     
1 25773U 99031D   23257.46875414 -.00000005  00000+0  20327-2 0  9995
2 25773  51.9894 326.0563 0002636 182.3296 272.7200 11.15045451406923
